      2.10          N: GNSS NAV DATA                        RINEX VERSION / TYPE
fic2rin                                 11/22/2018 00:19:05 PGM / RUN BY / DATE
                                                            END OF HEADER
10 18 11 21  6  0  0.0 1.617446541786e-04-4.661160346586e-12 0.000000000000e+00
    3.600000000000e+01-2.421875000000e+01 4.839130140623e-09-2.249559507983e+00
   -1.275911927223e-06 4.016393795609e-03 4.732981324196e-06 5.153655597687e+03
    2.808000000000e+05-2.235174179077e-08 1.441827221503e+00-5.587935447693e-08
    9.614098967298e-01 2.892500000000e+02-2.818146563070e+00-8.231057142283e-09
   -1.442917246152e-10 1.000000000000e+00 2.028000000000e+03 0.000000000000e+00
    2.400000000000e+00 0.000000000000e+00 1.862645149231e-09 3.600000000000e+01
    2.736060000000e+05 4.000000000000e+00
 9 18 11 21  6  0  0.0 4.906100220978e-04-3.410605131648e-12 0.000000000000e+00
    4.500000000000e+01-1.937500000000e+00 4.342323732356e-09 2.347885217906e+00
   -8.940696716309e-08 1.383269671351e-03 1.231767237186e-05 5.153793466568e+03
    2.808000000000e+05 3.725290298462e-08 2.478401029911e+00 3.166496753693e-08
    9.526830139972e-01 1.360000000000e+02 1.681926300353e+00-7.877113827695e-09
   -4.275178078327e-10 1.000000000000e+00 2.028000000000e+03 0.000000000000e+00
    2.400000000000e+00 0.000000000000e+00 1.396983861923e-09 4.500000000000e+01
    2.736060000000e+05 4.000000000000e+00
 6 18 11 21  6  0  0.0 3.299731761217e-04-6.480149750132e-12 0.000000000000e+00
    7.200000000000e+01 3.493750000000e+01 4.277678182466e-09 4.499879543188e-02
    1.860782504082e-06 1.105935662054e-03 9.840354323387e-06 5.153741718292e+03
    2.808000000000e+05 2.235174179077e-08 3.941212194736e-01 1.303851604462e-08
    9.732281477274e-01 1.975937500000e+02-1.209992696458e+00-7.908900866038e-09
    5.393081786361e-10 1.000000000000e+00 2.028000000000e+03 0.000000000000e+00
    2.400000000000e+00 0.000000000000e+00 4.656612873077e-09 7.200000000000e+01
    2.736060000000e+05 4.000000000000e+00
27 18 11 21  6  0  0.0-2.099014818668e-05-5.343281372916e-12 0.000000000000e+00
    4.500000000000e+01-8.671875000000e+01 4.046239970707e-09 1.910830853569e+00
   -4.438683390617e-06 6.192674627528e-03 1.064687967300e-05 5.153703994751e+03
    2.808000000000e+05-1.396983861923e-07-6.528552194575e-01 1.229345798492e-07
    9.783347427004e-01 1.840625000000e+02 4.334375334530e-01-7.797467652969e-09
   -1.967939115420e-10 1.000000000000e+00 2.028000000000e+03 0.000000000000e+00
    2.400000000000e+00 0.000000000000e+00 1.862645149231e-09 4.500000000000e+01
    2.736060000000e+05 4.000000000000e+00
25 18 11 21  6  0  0.0-6.799115799367e-04-5.570655048359e-12 0.000000000000e+00
    4.400000000000e+01-3.028125000000e+01 4.714124933654e-09-1.880529914156e+00
   -1.607462763786e-06 7.627097074874e-03 1.410022377968e-06 5.153556735992e+03
    2.808000000000e+05 1.415610313416e-07-1.693716318495e+00-6.519258022308e-08
    9.721167834917e-01 3.576562500000e+02 8.509337978140e-01-8.348919194568e-09
    5.000208278745e-12 1.000000000000e+00 2.028000000000e+03 0.000000000000e+00
    2.400000000000e+00 0.000000000000e+00 5.587935447693e-09 4.400000000000e+01
    2.736060000000e+05 4.000000000000e+00
30 18 11 21  6  0  0.0-7.954891771078e-06-5.684341886081e-12 0.000000000000e+00
    5.300000000000e+01 1.295000000000e+02 4.925562312298e-09-9.401999823031e-01
    6.655231118202e-06 3.586447099224e-03 6.830319762230e-06 5.153665061951e+03
    2.808000000000e+05 1.266598701477e-07-2.697379571315e+00-4.842877388000e-08
    9.429013687924e-01 2.353437500000e+02-2.985076890103e+00-8.430708315699e-09
    4.646622121891e-10 1.000000000000e+00 2.028000000000e+03 0.000000000000e+00
    2.400000000000e+00 0.000000000000e+00 3.725290298462e-09 5.300000000000e+01
    2.736060000000e+05 4.000000000000e+00
24 18 11 21  6  0  0.0-5.844701081514e-05-5.684341886081e-13 0.000000000000e+00
    6.700000000000e+01 1.105937500000e+02 5.017709007721e-09 9.114863821522e-02
    5.852431058884e-06 7.658322574571e-03 7.878988981247e-06 5.153619800568e+03
    2.808000000000e+05 6.705522537231e-08-2.791084619375e+00 6.332993507385e-08
    9.405307319888e-01 2.181250000000e+02 5.504005359001e-01-8.464995458181e-09
    3.721583590323e-10 1.000000000000e+00 2.028000000000e+03 0.000000000000e+00
    2.400000000000e+00 0.000000000000e+00 2.793967723846e-09 6.700000000000e+01
    2.736060000000e+05 4.000000000000e+00
14 18 11 21  6  0  0.0-9.557837620378e-05 4.547473508865e-13 0.000000000000e+00
    6.000000000000e+01 1.468750000000e+00 4.177674016892e-09 1.648676637428e+00
    7.078051567078e-08 9.990741848014e-03 1.178681850433e-05 5.153654619217e+03
    2.808000000000e+05-1.695007085800e-07 2.569639399132e+00-1.955777406693e-07
    9.609217633914e-01 1.519687500000e+02-1.947044692810e+00-7.851755628567e-09
   -3.021554431299e-10 1.000000000000e+00 2.028000000000e+03 0.000000000000e+00
    2.400000000000e+00 0.000000000000e+00-9.778887033463e-09 6.000000000000e+01
    2.736060000000e+05 4.000000000000e+00
15 18 11 21  6  0  0.0-3.390614874661e-04 1.364242052659e-12 0.000000000000e+00
    1.050000000000e+02-2.518750000000e+01 5.074497087458e-09 9.968955465524e-01
   -1.093372702599e-06 1.104890357237e-02 1.133047044277e-05 5.153600849152e+03
    2.808000000000e+05-2.086162567139e-07 2.403205226618e+00 2.607703208923e-08
    9.281304648850e-01 1.465625000000e+02 7.361665622579e-01-8.332132781060e-09
   -6.068109903991e-10 1.000000000000e+00 2.028000000000e+03 0.000000000000e+00
    3.400000000000e+00 0.000000000000e+00-1.117587089539e-08 1.050000000000e+02
    2.736060000000e+05 4.000000000000e+00
13 18 11 21  6  0  0.0-8.389353752136e-05 1.136868377216e-12 0.000000000000e+00
    8.000000000000e+01 4.187500000000e+00 3.987666102299e-09 7.467799641659e-01
    2.142041921616e-07 3.627716214396e-03 1.294165849686e-05 5.153678171158e+03
    2.808000000000e+05-3.725290298462e-08 2.612737141298e+00-6.891787052155e-08
    9.684013841133e-01 1.331250000000e+02 1.414836039154e+00-7.782109870398e-09
   -3.607293115380e-10 1.000000000000e+00 2.028000000000e+03 0.000000000000e+00
    2.400000000000e+00 0.000000000000e+00-1.117587089539e-08 8.000000000000e+01
    2.736060000000e+05 4.000000000000e+00
17 18 11 21  6  0  0.0-2.875877544284e-05 4.888534022029e-12 0.000000000000e+00
    5.900000000000e+01-1.058437500000e+02 3.741227265704e-09 1.898678927050e+00
   -5.647540092468e-06 1.288088550791e-02 1.191347837448e-05 5.153654050827e+03
    2.808000000000e+05 5.587935447693e-08-5.977995190809e-01-3.091990947723e-07
    9.837687182587e-01 1.604375000000e+02-1.760065762535e+00-7.560314917463e-09
   -1.857220217820e-10 1.000000000000e+00 2.028000000000e+03 0.000000000000e+00
    2.400000000000e+00 0.000000000000e+00-1.117587089539e-08 5.900000000000e+01
    2.736060000000e+05 4.000000000000e+00
19 18 11 21  6  0  0.0-3.816415555775e-04 3.751665644813e-12 0.000000000000e+00
    8.800000000000e+01-8.896875000000e+01 3.824802175506e-09-1.625719766211e+00
   -4.446133971214e-06 9.449435630813e-03 1.194141805172e-05 5.153616041183e+03
    2.808000000000e+05 1.508742570877e-07-5.511894817686e-01 1.471489667892e-07
    9.814656609557e-01 1.572812500000e+02 1.313562258181e+00-7.605673949706e-09
   -1.092902666640e-10 1.000000000000e+00 2.028000000000e+03 0.000000000000e+00
    2.400000000000e+00 0.000000000000e+00-1.536682248116e-08 8.800000000000e+01
    2.736060000000e+05 4.000000000000e+00
21 18 11 21  6  0  0.0-3.007766790688e-04 6.480149750132e-12 0.000000000000e+00
    6.800000000000e+01 4.343750000000e+01 4.653050961107e-09-2.033363938547e+00
    2.417713403702e-06 2.445231447928e-02 9.162351489067e-06 5.153587236404e+03
    2.808000000000e+05 3.203749656677e-07 3.433004679796e-01 3.315508365631e-07
    9.463152022380e-01 1.899687500000e+02-1.510433320548e+00-7.793538917893e-09
    4.807343102279e-10 1.000000000000e+00 2.028000000000e+03 0.000000000000e+00
    2.400000000000e+00 0.000000000000e+00-9.778887033463e-09 6.800000000000e+01
    2.736060000000e+05 4.000000000000e+00
32 18 11 21  6  0  0.0-3.491756506264e-04 1.443822839065e-11 0.000000000000e+00
    7.800000000000e+01-6.375000000000e+00 4.266963450441e-09 2.686042673030e+00
   -2.123415470123e-07 2.335235709324e-03 1.137331128120e-05 5.153732624054e+03
    2.808000000000e+05-1.862645149231e-08 2.484214025600e+00-2.980232238770e-08
    9.570093147993e-01 1.567187500000e+02-2.613828105141e+00-7.838540792401e-09
   -3.425142670940e-10 1.000000000000e+00 2.028000000000e+03 0.000000000000e+00
    2.400000000000e+00 0.000000000000e+00 4.656612873077e-10 7.800000000000e+01
    2.736060000000e+05 4.000000000000e+00
31 18 11 21  6  0  0.0 7.824832573533e-05-2.614797267597e-12 0.000000000000e+00
    8.200000000000e+01 1.141250000000e+02 4.494115769389e-09-1.219298384192e+00
    5.638226866722e-06 9.062734898180e-03 6.886199116707e-06 5.153787742615e+03
    2.808000000000e+05-2.980232238770e-08-2.715073297769e+00-1.322478055954e-07
    9.619865497783e-01 2.451875000000e+02-7.505027659098e-02-8.154982544899e-09
    4.964492505326e-10 1.000000000000e+00 2.028000000000e+03 0.000000000000e+00
    3.400000000000e+00 0.000000000000e+00-1.350417733192e-08 8.200000000000e+01
    2.736060000000e+05 4.000000000000e+00
26 18 11 21  6  0  0.0 4.547368735075e-05 1.102762325900e-11 0.000000000000e+00
    6.200000000000e+01-2.565625000000e+01 5.117713173296e-09-2.476366554127e+00
   -1.354143023491e-06 3.223292878829e-03 1.793727278709e-06 5.153750562668e+03
    2.808000000000e+05-7.823109626770e-08-1.718890748231e+00-8.009374141693e-08
    9.535463082883e-01 3.446875000000e+02 4.438932913088e-02-8.591786453821e-09
   -6.964575816824e-11 1.000000000000e+00 2.028000000000e+03 0.000000000000e+00
    2.400000000000e+00 0.000000000000e+00 7.450580596924e-09 6.200000000000e+01
    2.736060000000e+05 4.000000000000e+00
